IXPE                    
1 49954U 21121A   24115.58334491  .00012393  00000+0  96486-3 0  9991
2 49954   0.2309  70.7414 0009944 206.8120 147.5764 14.97467451  4843
